STARLINK-36391          
1 67591U 26018C   26041.58336806  .00156550  00000+0  80673-3 0  9995
2 67591  97.2810 105.9898 0001302  94.0443  12.1441 15.80726805  3038
STARLINK-36603          
1 67592U 26018D   26041.58336806  .00092340  00000+0  47908-3 0  9996
2 67592  97.2810 105.9914 0001100  82.2290  28.2079 15.80754435  2992
STARLINK-36634          
1 67593U 26018E   26041.58336806  .00056038  00000+0  29183-3 0  9996
2 67593  97.2809 105.9940 0001111  77.7196  39.2458 15.80785235  2980
STARLINK-36638          
1 67594U 26018F   26041.58336806  .00163901  00000+0  84286-3 0  9990
2 67594  97.2807 105.9969 0001245 100.9815  22.2849 15.80752879  2989
STARLINK-36628          
1 67595U 26018G   26041.58336806  .00125538  00000+0  64771-3 0  9992
2 67595  97.2790 105.9984 0001251  91.9667  35.9842 15.80783397  2982
STARLINK-36629          
1 67596U 26018H   26041.58336806  .00074678  00000+0  38728-3 0  9994
2 67596  97.2790 106.0008 0001525 101.2615  32.5124 15.80815648  2985
STARLINK-36384          
1 67597U 26018J   26041.58336806  .00082744  00000+0  42885-3 0  9997
2 67597  97.2789 106.0033 0001450 102.7728  37.2531 15.80804924  3047
STARLINK-36358          
1 67598U 26018K   26041.58336806  .00202642  00000+0  10375-2 0  9997
2 67598  97.2788 106.0050 0001172 105.5863  38.7610 15.80747643  3035
STARLINK-36582          
1 67599U 26018L   26041.58336806  .00128397  00000+0  66224-3 0  9997
2 67599  97.2789 106.0081 0000985 101.9950  49.1308 15.80783124  3099
STARLINK-36640          
1 67600U 26018M   26041.58336806 -.00353175  00000+0 -19055-2 0  9995
2 67600  97.2776 106.0117 0000964 117.8893  44.7160 15.80966361  2998
STARLINK-36635          
1 67601U 26018N   26041.58336806  .00114107  00000+0  58961-3 0  9994
2 67601  97.2784 106.0093 0001099  65.9519  90.2018 15.80782158  2997
STARLINK-36631          
1 67602U 26018P   26041.58336806  .00120972  00000+0  62400-3 0  9995
2 67602  97.2773 106.0155 0000775  98.8016  70.8815 15.80801426  2980
STARLINK-36626          
1 67603U 26018Q   26041.58336806  .00140044  00000+0  72198-3 0  9993
2 67603  97.2771 106.0225 0000929  96.4063  91.3147 15.80761918  2981
STARLINK-36605          
1 67604U 26018R   26041.58336806  .00285209  00000+0  14513-2 0  9993
2 67604  97.2767 106.0193 0000618 121.6964  61.2063 15.80667906  2982
STARLINK-36281          
1 67605U 26018S   26041.58336806  .00091307  00000+0  47329-3 0  9990
2 67605  97.2767 106.0169 0001201  98.1933  78.6110 15.80777432  3037
STARLINK-35843          
1 67606U 26018T   26041.58336806  .00131013  00000+0  67611-3 0  9996
2 67606  97.2766 106.0238 0001355  95.1841  98.1974 15.80763562  3044
STARLINK-36351          
1 67607U 26018U   26041.58336806  .00023142  00000+0  12116-3 0  9990
2 67607  97.2770 106.0267 0001246  75.7184 122.6526 15.80830417  3045
STARLINK-36411          
1 67608U 26018V   26041.58336806 -.00299284  00000+0 -16018-2 0  9999
2 67608  97.2766 106.0294 0001748  82.0166 124.0249 15.81004223  3035
STARLINK-36312          
1 67609U 26018W   26041.58336806 -.00675547  00000+0 -37218-2 0  9995
2 67609  97.2770 106.0323 0001626  85.4066 127.2208 15.81303202  3045
STARLINK-36387          
1 67610U 26018X   26041.58336806 -.01113800  00000+0 -62058-2 0  9997
2 67610  97.2764 106.0355 0001458  78.8489 141.6694 15.81736164  3049
STARLINK-36636          
1 67611U 26018Y   26041.58336806 -.01377144  00000+0 -77689-2 0  9997
2 67611  97.2764 106.0379 0001574  99.2826 127.0570 15.82050346  2993
STARLINK-36407          
1 67612U 26018Z   26041.58336806 -.01573738  00000+0 -87394-2 0  9999
2 67612  97.2764 106.0398 0001656  81.1014 150.1823 15.82295492  3098
STARLINK-36597          
1 67613U 26018AA  26041.58336806 -.01641230  00000+0 -90693-2 0  9999
2 67613  97.2758 106.0418 0001631  91.2074 145.5919 15.82530397  2994
NEONSAT-1A              
1 67614U 26019A   26041.30257195  .00004053  00000+0  26996-3 0  9993
2 67614  97.4083 165.8674 0012054 267.9635  92.0213 15.07588235  1691
ELECTRON R/B            
1 67615U 26019B   26041.87845039  .06283685  21437-5  10481-2 0  9996
2 67615  97.4151 167.9473 0078080 186.3106 173.7210 16.23910657  1876
ELECTRON KICK STAGE R/B 
1 67616U 26019C   26041.59302199  .00355220  36492-4  17912-2 0  9992
2 67616  97.4051 167.0018 0187185 220.6726 138.0428 15.60419971  1798
STARLINK-36548          
1 67617U 26020A   26041.58336806  .00022321  00000+0  13981-3 0  9993
2 67617  42.9989 307.0231 0001993 251.5127 220.6085 15.76347957  3034
STARLINK-36601          
1 67618U 26020B   26041.58336806  .00078910  00000+0  37479-3 0  9997
2 67618  42.9987 306.9843 0001963 261.7273 226.0645 15.81962384  3037
STARLINK-36119          
1 67619U 26020C   26041.58336806 -.01849448  00000+0 -12032-1 0  9999
2 67619  42.9991 306.9953 0001684 269.4984 213.7871 15.78070002  3036
STARLINK-36607          
1 67620U 26020D   26041.58336806  .00133143  00000+0  62778-3 0  9990
2 67620  42.9986 306.9583 0001983 278.4897 219.4128 15.81925286  3031
STARLINK-36615          
1 67621U 26020E   26041.58336806  .00111828  00000+0  52875-3 0  9994
2 67621  42.9990 306.9683 0001948 268.4094 225.7725 15.81934828  3032
STARLINK-36614          
1 67622U 26020F   26041.58336806 -.01924574  00000+0 -11036-1 0  9990
2 67622  42.9990 306.9519 0001274 265.6313 234.8701 15.80936994  3036
STARLINK-36600          
1 67623U 26020G   26041.58336806 -.01232203  00000+0 -81969-2 0  9995
2 67623  42.9991 306.9624 0001815 272.1585 224.2603 15.77328823  3036
STARLINK-36439          
1 67624U 26020H   26041.58336806  .00046370  00000+0  22195-3 0  9998
2 67624  42.9989 306.9314 0001800 255.3923 253.3624 15.81978431  3030
STARLINK-36438          
1 67625U 26020J   26041.58336806 -.01917989  00000+0 -10901-1 0  9995
2 67625  42.9991 306.9228 0001503 258.1047 254.1165 15.81112706  3030
STARLINK-36436          
1 67626U 26020K   26041.58336806  .00099852  00000+0  47297-3 0  9993
2 67626  42.9990 306.9021 0001780 282.3176 238.0811 15.81938913  3035
STARLINK-36502          
1 67627U 26020L   26041.58336806  .00127481  00000+0  60137-3 0  9992
2 67627  42.9991 306.9129 0001843 261.2921 254.9465 15.81933347  3038
STARLINK-36532          
1 67628U 26020M   26041.58336806  .00110924  00000+0  52439-3 0  9993
2 67628  42.9986 306.8837 0002350 273.7329 253.7034 15.81940658  3034
STARLINK-36367          
1 67629U 26020N   26041.58336806 -.00016773  00000+0 -77326-4 0  9996
2 67629  42.9990 306.8917 0001763 254.4004 270.2185 15.82001685  3032
STARLINK-36416          
1 67630U 26020P   26041.58336806 -.01909671  00000+0 -11406-1 0  9991
2 67630  42.9991 306.8816 0001464 266.2719 262.2728 15.80035808  3031
STARLINK-36527          
1 67631U 26020Q   26041.58336806  .00098070  00000+0  46463-3 0  9994
2 67631  42.9991 306.8690 0001987 260.3710 273.2839 15.81940215  3031
STARLINK-36633          
1 67632U 26020R   26041.58336806  .00066325  00000+0  31594-3 0  9992
2 67632  42.9991 306.8583 0001506 260.9272 276.9076 15.81958929  3033
STARLINK-36637          
1 67633U 26020S   26041.58336806 -.01908432  00000+0 -11241-1 0  9995
2 67633  42.9991 306.8530 0001586 254.8897 285.1190 15.80331628  3038
STARLINK-36617          
1 67634U 26020T   26041.58336806  .00107249  00000+0  50733-3 0  9991
2 67634  42.9991 306.8396 0001994 276.0877 269.0882 15.81940679  3038
STARLINK-36627          
1 67635U 26020U   26041.58336806  .00070783  00000+0  33701-3 0  9990
2 67635  42.9992 306.8046 0001809 257.2781 301.7857 15.81947594  3031
STARLINK-36624          
1 67636U 26020V   26041.58336806  .00068983  00000+0  32840-3 0  9993
2 67636  42.9992 306.8131 0001768 264.9509 290.8690 15.81958520  3038
STARLINK-36610          
1 67637U 26020W   26041.58336806 -.01903018  00000+0 -10991-1 0  9995
2 67637  42.9994 306.7940 0001695 265.1739 298.2337 15.80741943  3033
STARLINK-36599          
1 67638U 26020X   26041.58336806  .00045037  00000+0  21586-3 0  9995
2 67638  42.9992 306.7802 0001881 259.4299 309.4335 15.81960012  3037
STARLINK-36595          
1 67639U 26020Y   26041.58336806  .00091869  00000+0  43592-3 0  9991
2 67639  42.9992 306.7690 0002004 266.8200 306.5433 15.81930461  3037
STARLINK-36570          
1 67640U 26020Z   26041.58336806  .00092387  00000+0  43811-3 0  9993
2 67640  42.9993 306.7602 0001980 266.9841 309.7054 15.81941631  3032
STARLINK-36514          
1 67641U 26020AA  26041.58336806  .00057400  00000+0  27393-3 0  9998
2 67641  42.9991 306.7358 0002190 268.2555 318.1563 15.81966843  3031
STARLINK-36556          
1 67642U 26020AB  26041.58336806 -.00032354  00000+0 -15172-3 0  9994
2 67642  42.9991 306.7262 0001867 257.3605 332.6678 15.82010091  3035
STARLINK-36533          
1 67643U 26020AC  26041.58336806 -.01790283  00000+0 -95499-2 0  9997
2 67643  42.9991 306.7483 0002195 251.8101 329.5152 15.82235319  3030
STARLINK-36623          
1 67644U 26020AD  26041.58336806  .00051020  00000+0  24373-3 0  9998
2 67644  42.9988 306.7016 0001856 253.0219 346.7401 15.81986342  3032
STARLINK-36619          
1 67645U 26020AE  26041.58336806 -.00015189  00000+0 -69746-4 0  9991
2 67645  42.9988 306.7128 0001860 250.4351 344.8462 15.82008084  3035
ALSAT-3B                
1 67646U 26021A   26041.58922544  .00006749  00000+0  28502-3 0  9997
2 67646  97.4721 116.0420 0011675 226.0443 133.9832 15.23533563  1596
CZ-2C R/B               
1 67647U 26021B   26041.59173341  .00013938  00000+0  42205-3 0  9996
2 67647  97.6561 116.5141 0153952 105.3427 256.4881 15.23339687  1576
STARLINK-36719          
1 67648U 26022A   26041.58336806 -.01774467  87408-3 -53523-2 0  9993
2 67648  97.2838  74.1458 0001419  85.6795  25.0792 15.92299808  2532
STARLINK-36342          
1 67649U 26022B   26041.58336806 -.01772857  87389-3 -53076-2 0  9996
2 67649  97.2835  74.1466 0001428  92.4604  20.8807 15.92444767  2530
